{
    "links": {
        "self": "http://www.neowsapp.com/rest/v1/neo/3696400?api_key=iIulBulltgU6a56xZRHN4H3l9WmuAYTsLGpBGhQ2"
    },
    "id": "3696400",
    "neo_reference_id": "3696400",
    "name": "(2014 WD6)",
    "designation": "2014 WD6",
    "nasa_jpl_url": "http://ssd.jpl.nasa.gov/sbdb.cgi?sstr=3696400",
    "absolute_magnitude_h": 22.2,
    "estimated_diameter": {
        "kilometers": {
            "estimated_diameter_min": 0.096506147,
            "estimated_diameter_max": 0.2157943048
        },
        "meters": {
            "estimated_diameter_min": 96.5061469579,
            "estimated_diameter_max": 215.7943048444
        },
        "miles": {
            "estimated_diameter_min": 0.059966121,
            "estimated_diameter_max": 0.134088323
        },
        "feet": {
            "estimated_diameter_min": 316.6212271853,
            "estimated_diameter_max": 707.9865871058
        }
    },
    "is_potentially_hazardous_asteroid": false,
    "close_approach_data": [
        {
            "close_approach_date": "2014-11-25",
            "close_approach_date_full": "2014-Nov-25 22:19",
            "epoch_date_close_approach": 1416953940000,
            "relative_velocity": {
                "kilometers_per_second": "13.0806728753",
                "kilometers_per_hour": "47090.4223511556",
                "miles_per_hour": "29260.1571548055"
            },
            "miss_distance": {
                "astronomical": "0.1703396151",
                "lunar": "66.2621102739",
                "kilometers": "25482443.595579837",
                "miles": "15834056.2153502706"
            },
            "orbiting_body": "Earth"
        },
        {
            "close_approach_date": "2033-11-23",
            "close_approach_date_full": "2033-Nov-23 14:05",
            "epoch_date_close_approach": 2016367500000,
            "relative_velocity": {
                "kilometers_per_second": "12.9109933377",
                "kilometers_per_hour": "46479.5760156718",
                "miles_per_hour": "28880.6009970712"
            },
            "miss_distance": {
                "astronomical": "0.1861032426",
                "lunar": "72.3941613714",
                "kilometers": "27840648.693053262",
                "miles": "17299376.9150965356"
            },
            "orbiting_body": "Earth"
        }
    ],
    "orbital_data": {
        "orbit_id": "14",
        "orbit_determination_date": "2017-04-06 08:37:29",
        "first_observation_date": "2014-11-10",
        "last_observation_date": "2014-12-12",
        "data_arc_in_days": 32,
        "observations_used": 91,
        "orbit_uncertainty": "6",
        "minimum_orbit_intersection": ".172265",
        "jupiter_tisserand_invariant": "3.466",
        "epoch_osculation": "2459000.5",
        "eccentricity": ".4634694328135985",
        "semi_major_axis": "2.15655968713595",
        "inclination": "22.65529199813497",
        "ascending_node_longitude": "64.84845064846336",
        "orbital_period": "1156.753043424794",
        "perihelion_distance": "1.15706019211038",
        "perihelion_argument": "353.2728637493994",
        "aphelion_distance": "3.156059182161521",
        "perihelion_time": "2459294.683881798030",
        "mean_anomaly": "268.445283071195",
        "mean_motion": ".311215952312647",
        "equinox": "J2000",
        "orbit_class": {
            "orbit_class_type": "AMO",
            "orbit_class_description": "Near-Earth asteroid orbits similar to that of 1221 Amor",
            "orbit_class_range": "1.017 AU < q (perihelion) < 1.3 AU"
        }
    },
    "is_sentry_object": false
}